NORAD_CAT_ID,OBJECT_NAME,OBJECT_TYPE,EPOCH,MEAN_MOTION,ECCENTRICITY,INCLINATION,RA_OF_ASC_NODE,ARG_OF_PERICENTER,MEAN_ANOMALY,BSTAR,MEAN_MOTION_DOT,MEAN_MOTION_DDOT,TLE_LINE0,TLE_LINE1,TLE_LINE2,SEMIMAJOR_AXIS,PERIOD,APOGEE,PERIGEE,DECAYED
55278.0,STARLINK-5289,PAYLOAD,2023-11-08 22:32:43,14.98312766,0.000182,70.0038,31.9589,270.9027,89.1923,0.00049935,5.867e-05,0.0,0 STARLINK-5289,1 55278U 23010K   23312.93938684  .00005867  00000-0  49935-3 0  9993,2 55278  70.0038  31.9589 0001820 270.9027  89.1923 14.98312766 45198,6950.246,96.108,573.376,570.846,0.0
55278.0,STARLINK-5289,PAYLOAD,2023-11-09 11:21:46,14.98338203,0.0002648,70.0021,30.6107,261.7862,98.2997,1.7177e-05,1.12e-06,0.0,0 STARLINK-5289,1 55278U 23010K   23313.47346016  .00000112  00000-0  17177-4 0  9997,2 55278  70.0021  30.6107 0002648 261.7862  98.2997 14.98338203 44977,6950.168,96.106,573.873,570.192,0.0
55278.0,STARLINK-5289,PAYLOAD,2023-11-09 14:34:03,14.98328087,0.0002442,70.0031,30.2742,249.1175,110.9722,0.00019265,2.206e-05,0.0,0 STARLINK-5289,1 55278U 23010K   23313.60698164  .00002206  00000-0  19265-3 0  9991,2 55278  70.0031  30.2742 0002442 249.1175 110.9722 14.98328087 45291,6950.199,96.107,573.761,570.367,0.0
55278.0,STARLINK-5289,PAYLOAD,2023-11-10 11:23:47,14.98342509,0.0002722,70.0017,28.0839,264.4634,95.6215,-4.537e-05,-6.34e-06,0.0,0 STARLINK-5289,1 55278U 23010K   23314.47485472 -.00000634  00000-0 -45370-4 0  9995,2 55278  70.0017  28.0839 0002722 264.4634  95.6215 14.98342509 45121,6950.154,96.106,573.911,570.127,0.0
55278.0,STARLINK-5289,PAYLOAD,2023-11-10 14:36:03,14.98340702,0.0002845,70.0014,27.7471,264.0398,96.0437,-7.9234e-05,-1.038e-05,0.0,0 STARLINK-5289,1 55278U 23010K   23314.60837542 -.00001038  00000-0 -79234-4 0  9994,2 55278  70.0014  27.7471 0002845 264.0398  96.0437 14.98340702 45444,6950.16,96.106,574.002,570.047,0.0
55278.0,STARLINK-5289,PAYLOAD,2023-11-10 22:36:44,14.98338056,0.0002562,70.0024,26.9055,273.0105,87.076,-7.9947e-05,-1.047e-05,0.0,0 STARLINK-5289,1 55278U 23010K   23314.94217619 -.00001047  00000-0 -79947-4 0  9999,2 55278  70.0024  26.9055 0002562 273.0105  87.0760 14.98338056 45196,6950.168,96.106,573.814,570.252,0.0
55278.0,STARLINK-5289,PAYLOAD,2023-11-11 13:01:56,14.98335154,0.000293,70.0009,25.3899,266.7886,93.2937,-3.6464e-05,-5.28e-06,0.0,0 STARLINK-5289,1 55278U 23010K   23315.54301343 -.00000528  00000-0 -36464-4 0  9994,2 55278  70.0009  25.3899 0002930 266.7886  93.2937 14.98335154 45586,6950.177,96.107,574.078,570.006,0.0
55278.0,STARLINK-5289,PAYLOAD,2023-11-11 14:38:04,14.98335456,0.0002938,70.0009,25.2216,266.966,93.1163,-2.7326e-05,-4.19e-06,0.0,0 STARLINK-5289,1 55278U 23010K   23315.60977271 -.00000419  00000-0 -27326-4 0  9996,2 55278  70.0009  25.2216 0002938 266.9660  93.1163 14.98335456 45594,6950.176,96.107,574.083,569.999,0.0
55278.0,STARLINK-5289,PAYLOAD,2023-11-11 22:38:44,14.98331462,0.0002783,70.0013,24.3798,264.283,95.8011,-3.5573e-05,-5.17e-06,0.0,0 STARLINK-5289,1 55278U 23010K   23315.94357461 -.00000517  00000-0 -35573-4 0  9998,2 55278  70.0013  24.3798 0002783 264.2830  95.8011 14.98331462 45349,6950.188,96.107,573.988,570.119,0.0
55278.0,STARLINK-5289,PAYLOAD,2023-11-12 11:27:48,14.9833741,0.0002942,70.0007,23.0332,267.9154,92.1669,0.00013041,1.464e-05,0.0,0 STARLINK-5289,1 55278U 23010K   23316.47764452  .00001464  00000-0  13041-3 0  9994,2 55278  70.0007  23.0332 0002942 267.9154  92.1669 14.98337410 45425,6950.17,96.107,574.08,569.99,0.0
55278.0,STARLINK-5289,PAYLOAD,2023-11-12 13:03:56,14.98338169,0.0002913,70.0008,22.8649,267.7391,92.3435,0.00014172,1.599e-05,0.0,0 STARLINK-5289,1 55278U 23010K   23316.54440345  .00001599  00000-0  14172-3 0  9999,2 55278  70.0008  22.8649 0002913 267.7391  92.3435 14.98338169 45732,6950.168,96.106,574.057,570.008,0.0
55278.0,STARLINK-5289,PAYLOAD,2023-11-12 14:40:04,14.98333985,0.0002838,70.001,22.6965,266.9878,93.0956,0.00023849,2.754e-05,0.0,0 STARLINK-5289,1 55278U 23010K   23316.61116339  .00002754  00000-0  23849-3 0  9995,2 55278  70.0010  22.6965 0002838 266.9878  93.0956 14.98333985 45749,6950.181,96.107,574.018,570.073,0.0
55278.0,STARLINK-5289,PAYLOAD,2023-11-13 11:29:49,14.98331682,0.0002699,70.0013,20.5093,263.8609,96.2243,-5.9765e-06,-1.64e-06,0.0,0 STARLINK-5289,1 55278U 23010K   23317.47904774 -.00000164  00000-0 -59765-5 0  9991,2 55278  70.0013  20.5093 0002699 263.8609  96.2243 14.98331682 45571,6950.188,96.107,573.929,570.177,0.0
55278.0,STARLINK-5289,PAYLOAD,2023-11-13 13:05:57,14.98330021,0.0002804,70.0013,20.3406,271.0195,89.0643,1.3585e-05,6.9e-07,0.0,0 STARLINK-5289,1 55278U 23010K   23317.54580869  .00000069  00000-0  13585-4 0  9995,2 55278  70.0013  20.3406 0002804 271.0195  89.0643 14.98330021 45880,6950.193,96.107,574.007,570.109,0.0
55278.0,STARLINK-5289,PAYLOAD,2023-11-13 21:06:37,14.9835845,0.0002856,70.0016,19.499,275.212,84.8713,-0.00055765,-6.745e-05,0.0,0 STARLINK-5289,1 55278U 23010K   23317.87960306 -.00006745  00000-0 -55765-3 0  9993,2 55278  70.0016  19.4990 0002856 275.2120  84.8713 14.98358450 45934,6950.105,96.105,573.955,569.985,0.0
55278.0,STARLINK-5289,PAYLOAD,2023-11-14 11:31:51,14.98324083,0.0002415,70.0021,17.9857,252.129,107.9606,-0.000131,-1.655e-05,0.0,0 STARLINK-5289,1 55278U 23010K   23318.48045707 -.00001655  00000-0 -13100-3 0  9992,2 55278  70.0021  17.9857 0002415 252.1290 107.9606 14.98324083 45728,6950.211,96.107,573.755,570.398,0.0
55278.0,STARLINK-5289,PAYLOAD,2023-11-14 13:07:59,14.98328659,0.0002314,70.002,17.8171,258.9115,101.1784,-0.00020153,-2.496e-05,0.0,0 STARLINK-5289,1 55278U 23010K   23318.54721652 -.00002496  00000-0 -20153-3 0  9999,2 55278  70.0020  17.8171 0002314 258.9115 101.1784 14.98328659 46034,6950.197,96.107,573.67,570.454,0.0
55278.0,STARLINK-5289,PAYLOAD,2023-11-14 21:08:39,14.98345459,0.0002778,70.0021,16.9751,271.1955,88.8886,-0.00039665,-4.824e-05,0.0,0 STARLINK-5289,1 55278U 23010K   23318.88100962 -.00004824  00000-0 -39665-3 0  9996,2 55278  70.0021  16.9751 0002778 271.1955  88.8886 14.98345459 46088,6950.145,96.106,573.941,570.079,0.0
55278.0,STARLINK-5289,PAYLOAD,2023-11-15 11:33:51,14.98327919,0.0002538,70.0018,15.4604,261.6574,98.4298,3.9397e-05,3.77e-06,0.0,0 STARLINK-5289,1 55278U 23010K   23319.48184997  .00000377  00000-0  39397-4 0  9993,2 55278  70.0018  15.4604 0002538 261.6574  98.4298 14.98327919 45871,6950.199,96.107,573.828,570.3,0.0
55278.0,STARLINK-5289,PAYLOAD,2023-11-15 13:09:59,14.98328525,0.000259,70.0018,15.2922,264.0751,96.0113,4.3981e-05,4.32e-06,0.0,0 STARLINK-5289,1 55278U 23010K   23319.54860952  .00000432  00000-0  43981-4 0  9998,2 55278  70.0018  15.2922 0002590 264.0751  96.0113 14.98328525 46183,6950.197,96.107,573.863,570.262,0.0
55278.0,STARLINK-5289,PAYLOAD,2023-11-15 21:10:40,14.98329155,0.0002359,70.0023,14.4494,279.3931,80.6962,2.621e-05,2.2e-06,0.0,0 STARLINK-5289,1 55278U 23010K   23319.88241160  .00000220  00000-0  26210-4 0  9990,2 55278  70.0023  14.4494 0002359 279.3931  80.6962 14.98329155 46233,6950.196,96.107,573.7,570.421,0.0
55278.0,STARLINK-5289,PAYLOAD,2023-11-16 08:23:36,14.98325019,0.0002868,70.0009,13.2714,270.0491,90.034,9.0023e-05,9.81e-06,0.0,0 STARLINK-5289,1 55278U 23010K   23320.34973108  .00000981  00000-0  90023-4 0  9994,2 55278  70.0009  13.2714 0002868 270.0491  90.0340 14.98325019 46301,6950.208,96.107,574.067,570.08,0.0
55278.0,STARLINK-5289,PAYLOAD,2023-11-17 03:37:13,14.98328986,0.0002944,70.0006,11.2507,270.6157,89.4664,9.7851e-06,2.4e-07,0.0,0 STARLINK-5289,1 55278U 23010K   23321.15085134  .00000024  00000-0  97851-5 0  9992,2 55278  70.0006  11.2507 0002944 270.6157  89.4664 14.98328986 46123,6950.196,96.107,574.107,570.015,0.0
55278.0,STARLINK-5289,PAYLOAD,2023-11-17 13:14:01,14.98329255,0.000281,70.0006,10.2415,265.0205,95.0633,-1.9406e-05,-3.24e-06,0.0,0 STARLINK-5289,1 55278U 23010K   23321.55141181 -.00000324  00000-0 -19406-4 0  9995,2 55278  70.0006  10.2415 0002810 265.0205  95.0633 14.98329255 46482,6950.195,96.107,574.013,570.107,0.0
55278.0,STARLINK-5289,PAYLOAD,2023-11-17 21:14:43,14.98298174,0.0002588,70.0009,9.3992,289.0119,71.076,0.00051755,6.083e-05,0.0,0 STARLINK-5289,1 55278U 23010K   23321.88522254  .00006083  00000-0  51755-3 0  9993,2 55278  70.0009   9.3992 0002588 289.0119  71.0760 14.98298174 46532,6950.291,96.109,573.955,570.358,0.0
55278.0,STARLINK-5289,PAYLOAD,2023-11-18 03:39:14,14.98328857,0.00029,70.0001,8.7255,268.8792,91.2034,6.407e-06,-1.7e-07,0.0,0 STARLINK-5289,1 55278U 23010K   23322.15225102 -.00000017  00000-0  64070-5 0  9994,2 55278  70.0001   8.7255 0002900 268.8792  91.2034 14.98328857 46270,6950.196,96.107,574.077,570.046,0.0
55278.0,STARLINK-5289,PAYLOAD,2023-11-18 11:39:54,14.98330489,0.0002796,70.0007,7.8856,265.2081,94.8759,2.2654e-05,1.77e-06,0.0,0 STARLINK-5289,1 55278U 23010K   23322.48604964  .00000177  00000-0  22654-4 0  9994,2 55278  70.0007   7.8856 0002796 265.2081  94.8759 14.98330489 46624,6950.191,96.107,574.0,570.113,0.0
55278.0,STARLINK-5289,PAYLOAD,2023-11-19 03:41:15,14.98330346,0.0002869,70.0002,6.2008,269.0138,91.0693,3.1592e-05,2.84e-06,0.0,0 STARLINK-5289,1 55278U 23010K   23323.15364878  .00000284  00000-0  31592-4 0  9996,2 55278  70.0002   6.2008 0002869 269.0138  91.0693 14.98330346 46423,6950.192,96.107,574.051,570.063,0.0
55278.0,STARLINK-5289,PAYLOAD,2023-11-19 13:18:03,14.98332005,0.000285,70.0003,5.1909,269.399,90.6842,5.1596e-05,5.23e-06,0.0,0 STARLINK-5289,1 55278U 23010K   23323.55420680  .00000523  00000-0  51596-4 0  9996,2 55278  70.0003   5.1909 0002850 269.3990  90.6842 14.98332005 46785,6950.187,96.107,574.032,570.071,0.0
55278.0,STARLINK-5289,PAYLOAD,2023-11-19 19:42:36,14.98325036,0.0002569,70.002,4.5173,274.6494,85.4372,0.00012354,1.381e-05,0.0,0 STARLINK-5289,1 55278U 23010K   23323.82125044  .00001381  00000-0  12354-3 0  9993,2 55278  70.0020   4.5173 0002569 274.6494  85.4372 14.98325036 46826,6950.208,96.107,573.859,570.288,0.0
